{
  "type": "FeatureCollection",
  "features": [
    {
      "type": "Feature",
      "properties": {
        "norad_id": 50032,
        "name": "COSMOS 1408 DEB",
        "group": "cosmos-1408-debris",
        "lat": -54.64949643096984,
        "lon": -110.37069931833102,
        "alt_km": 427.0742986439227,
        "timestamp": "2025-12-12T05:47:29.041424+00:00",
        "meta_object_name": "COSMOS 1408 DEB",
        "meta_object_id": "1982-092RU",
        "meta_epoch": "2025-12-11T16:20:47.923872",
        "meta_mean_motion": 15.45676652,
        "meta_eccentricity": 0.00151449,
        "meta_inclination": 82.5641,
        "meta_ra_of_asc_node": 59.5936,
        "meta_arg_of_pericenter": 212.6008,
        "meta_mean_anomaly": 147.4307,
        "meta_ephemeris_type": 0,
        "meta_classification_type": "U",
        "meta_norad_cat_id": 50032,
        "meta_element_set_no": 999,
        "meta_rev_at_epoch": 22587,
        "meta_bstar": 0.00015797469,
        "meta_mean_motion_dot": 7.691e-05,
        "meta_mean_motion_ddot": 0,
        "tle_line1": "1 50032U 82092RU  25345.68111023  .00007691  00000+0  15797-3 0  9996",
        "tle_line2": "2 50032  82.5641  59.5936 0015144 212.6008 147.4307 15.45676652225876"
      },
      "geometry": {
        "type": "Point",
        "coordinates": [
          -110.37069931833102,
          -54.64949643096984
        ]
      }
    },
    {
      "type": "Feature",
      "properties": {
        "norad_id": 50058,
        "name": "COSMOS 1408 DEB",
        "group": "cosmos-1408-debris",
        "lat": 43.32388453967718,
        "lon": 76.89261884369338,
        "alt_km": 366.17318314928343,
        "timestamp": "2025-12-12T05:47:29.041444+00:00",
        "meta_object_name": "COSMOS 1408 DEB",
        "meta_object_id": "1982-092SW",
        "meta_epoch": "2025-12-11T06:34:19.152192",
        "meta_mean_motion": 15.63964775,
        "meta_eccentricity": 0.00160129,
        "meta_inclination": 82.6138,
        "meta_ra_of_asc_node": 70.8772,
        "meta_arg_of_pericenter": 102.2436,
        "meta_mean_anomaly": 258.0617,
        "meta_ephemeris_type": 0,
        "meta_classification_type": "U",
        "meta_norad_cat_id": 50058,
        "meta_element_set_no": 999,
        "meta_rev_at_epoch": 22781,
        "meta_bstar": 0.00053909325,
        "meta_mean_motion_dot": 0.00051314,
        "meta_mean_motion_ddot": 0,
        "tle_line1": "1 50058U 82092SW  25345.27383278  .00051314  00000+0  53909-3 0  9990",
        "tle_line2": "2 50058  82.6138  70.8772 0016012 102.2436 258.0617 15.63964775227819"
      },
      "geometry": {
        "type": "Point",
        "coordinates": [
          76.89261884369338,
          43.32388453967718
        ]
      }
    },
    {
      "type": "Feature",
      "properties": {
        "norad_id": 50404,
        "name": "COSMOS 1408 DEB",
        "group": "cosmos-1408-debris",
        "lat": -64.44708242248007,
        "lon": 52.19867187054814,
        "alt_km": 447.1544507823646,
        "timestamp": "2025-12-12T05:47:29.041458+00:00",
        "meta_object_name": "COSMOS 1408 DEB",
        "meta_object_id": "1982-092ADS",
        "meta_epoch": "2025-12-11T01:44:16.772640",
        "meta_mean_motion": 15.13391943,
        "meta_eccentricity": 0.01726658,
        "meta_inclination": 82.2029,
        "meta_ra_of_asc_node": 216.7405,
        "meta_arg_of_pericenter": 204.633,
        "meta_mean_anomaly": 154.6586,
        "meta_ephemeris_type": 0,
        "meta_classification_type": "U",
        "meta_norad_cat_id": 50404,
        "meta_element_set_no": 999,
        "meta_rev_at_epoch": 21168,
        "meta_bstar": 0.003930623,
        "meta_mean_motion_dot": 0.00102745,
        "meta_mean_motion_ddot": 0,
        "tle_line1": "1 50404U 82092ADS 25345.07241635  .00102745  00000+0  39306-2 0  9992",
        "tle_line2": "2 50404  82.2029 216.7405 0172665 204.6330 154.6586 15.13391943211680"
      },
      "geometry": {
        "type": "Point",
        "coordinates": [
          52.19867187054814,
          -64.44708242248007
        ]
      }
    },
    {
      "type": "Feature",
      "properties": {
        "norad_id": 50621,
        "name": "COSMOS 1408 DEB",
        "group": "cosmos-1408-debris",
        "lat": 71.75766803997256,
        "lon": 98.0238693683346,
        "alt_km": 387.42784358831886,
        "timestamp": "2025-12-12T05:47:29.041469+00:00",
        "meta_object_name": "COSMOS 1408 DEB",
        "meta_object_id": "1982-092ALR",
        "meta_epoch": "2025-12-11T12:30:20.156832",
        "meta_mean_motion": 15.56564652,
        "meta_eccentricity": 0.0028861,
        "meta_inclination": 82.57,
        "meta_ra_of_asc_node": 75.4488,
        "meta_arg_of_pericenter": 157.0202,
        "meta_mean_anomaly": 203.2351,
        "meta_ephemeris_type": 0,
        "meta_classification_type": "U",
        "meta_norad_cat_id": 50621,
        "meta_element_set_no": 999,
        "meta_rev_at_epoch": 22231,
        "meta_bstar": 0.00065091593,
        "meta_mean_motion_dot": 0.00047317,
        "meta_mean_motion_ddot": 0,
        "tle_line1": "1 50621U 82092ALR 25345.52106663  .00047317  00000+0  65092-3 0  9999",
        "tle_line2": "2 50621  82.5700  75.4488 0028861 157.0202 203.2351 15.56564652222317"
      },
      "geometry": {
        "type": "Point",
        "coordinates": [
          98.0238693683346,
          71.75766803997256
        ]
      }
    }
  ]
}